OBJECT_NAME,OBJECT_ID,EPOCH,MEAN_MOTION,ECCENTRICITY,INCLINATION,RA_OF_ASC_NODE,ARG_OF_PERICENTER,MEAN_ANOMALY,EPHEMERIS_TYPE,CLASSIFICATION_TYPE,NORAD_CAT_ID,ELEMENT_SET_NO,REV_AT_EPOCH,BSTAR,MEAN_MOTION_DOT,MEAN_MOTION_DDOT
KUIPER-00616,2026-151N,2026-07-13T10:11:36.970080,15.38368221,.0002942,51.8764,188.8698,110.5944,249.5359,0,U,69775,999,174,.41126E-3,.15442E-3,0
KUIPER-00617,2026-151P,2026-07-13T10:16:39.942912,15.37751148,.0004027,51.8785,188.8916,127.8474,232.2878,0,U,69776,999,174,.25274E-3,.9139E-4,0
KUIPER-00619,2026-151Q,2026-07-13T11:42:27.260928,15.38509808,.000205,51.8786,188.5383,55.3478,304.7703,0,U,69777,999,175,.34186E-3,.12825E-3,0
KUIPER-00621,2026-151R,2026-07-13T11:44:52.150272,15.38304218,.0002193,51.8779,188.5537,95.9796,264.1441,0,U,69778,999,175,.2795E-3,.10338E-3,0
KUIPER-00622,2026-151S,2026-07-13T11:58:32.258208,15.36973153,.0006164,51.8731,188.6183,134.5942,225.5548,0,U,69779,999,175,.47022E-3,.16926E-3,0
KUIPER-00623,2026-151T,2026-07-13T11:53:26.505888,15.37408531,.0005062,51.8767,188.5916,125.4370,234.7090,0,U,69780,999,175,.28142E-3,.10107E-3,0
KUIPER-00626,2026-151U,2026-07-13T12:09:36.148032,15.35544368,.0009926,51.8713,188.6659,157.4028,202.7397,0,U,69781,999,175,.58422E-4,.1664E-4,0
KUIPER-00627,2026-151V,2026-07-13T12:12:02.540736,15.35460927,.0011046,51.8688,188.6756,161.1018,199.0379,0,U,69782,999,175,.88817E-4,.2725E-4,0
KUIPER-00629,2026-151W,2026-07-13T11:59:11.087232,15.36948752,.0007344,51.8735,188.6185,138.3193,221.8354,0,U,69783,999,175,.33722E-3,.12012E-3,0
KUIPER-00631,2026-151X,2026-07-13T12:01:35.516064,15.36717956,.0007973,51.8710,188.6284,149.1429,211.0028,0,U,69784,999,175,.28653E-3,.10069E-3,0
KUIPER-00634,2026-151Y,2026-07-13T10:17:19.322304,15.37708366,.0003754,51.8762,188.8963,128.5208,231.6116,0,U,69785,999,174,.21681E-3,.7771E-4,0
KUIPER-00639,2026-151Z,2026-07-13T10:33:19.486368,15.35902573,.0009407,51.8680,188.9682,155.4891,204.6544,0,U,69786,999,174,.56966E-3,.19905E-3,0
KUIPER-00641,2026-151AA,2026-07-13T10:38:54.484224,15.35115253,.0010298,51.8671,188.9921,153.2259,206.9261,0,U,69787,999,174,-.38747E-4,-.173E-4,0
KUIPER-00644,2026-151AB,2026-07-13T12:03:31.749984,15.36538512,.0007065,51.8737,188.6394,143.7441,216.4025,0,U,69788,999,175,.34165E-3,.12011E-3,0
KUIPER-00646,2026-151AC,2026-07-13T10:32:50.620128,15.35967857,.0010038,51.8702,188.9638,161.9649,198.1695,0,U,69789,999,174,.7762E-3,.27353E-3,0
KUIPER-00647,2026-151AD,2026-07-13T10:37:13.960416,15.35638074,.0010395,51.8652,188.9826,157.1351,203.0099,0,U,69790,999,174,.41124E-3,.14131E-3,0
KUIPER-00662,2026-151AE,2026-07-13T12:02:34.058112,15.36578059,.000843,51.8722,188.6349,147.4488,212.7020,0,U,69791,999,175,-.10636E-3,-.4252E-4,0
LINK,2026-152A,2026-07-13T12:42:29.818656,15.66687668,.0024318,20.5931,340.2181,332.1267,27.7877,0,U,69792,999,159,.10182E-2,.116127E-2,0
ISS OBJECT YJ,1998-067YJ,2026-07-13T07:25:34.956768,15.49952170,.0007798,51.6302,170.7525,305.0865,54.9392,0,U,69794,999,170,.33284555E-3,.18569E-3,0
ISS OBJECT YK,1998-067YK,2026-07-13T07:21:18.567360,15.50571455,.00068088,51.6301,170.7325,314.2407,45.8022,0,U,69795,999,170,.59999305E-3,.34662E-3,0
ISS OBJECT YL,1998-067YL,2026-07-13T07:22:17.646816,15.50366695,.00088583,51.6300,170.7373,306.5347,53.4825,0,U,69796,999,169,.46323891E-3,.26449E-3,0
ISS OBJECT YM,1998-067YM,2026-07-13T07:22:00.235488,15.50405773,.00096094,51.6301,170.7356,297.6086,62.3927,0,U,69797,999,168,.471277E-3,.26962E-3,0
ISS OBJECT YN,1998-067YN,2026-07-13T07:22:38.897760,15.50233716,.00092329,51.6304,170.7381,308.5792,51.4370,0,U,69798,999,170,.32725074E-3,.18443E-3,0
ISS OBJECT YP,1998-067YP,2026-07-13T07:21:53.507520,15.50404929,.00097743,51.6300,170.7353,297.7177,62.2820,0,U,69799,999,169,.45707022E-3,.26134E-3,0
STARLINK-37520,2026-154A,2026-07-13T12:00:00.998784,15.90344978,.0000761,53.1600,301.5373,71.9057,313.2994,0,U,69819,999,239,-.63911E-2,-.1734578E-1,0
STARLINK-37553,2026-154B,2026-07-13T12:00:00.998784,15.90448238,.0000793,53.1600,301.5302,68.5360,320.0034,0,U,69820,999,239,-.63147E-2,-.1724621E-1,0
STARLINK-37561,2026-154C,2026-07-13T12:00:00.998784,15.90562399,.0000899,53.1600,301.5234,68.7170,323.1619,0,U,69821,999,239,-.62886E-2,-.1727376E-1,0
STARLINK-37521,2026-154D,2026-07-13T12:00:00.998784,15.90700348,.0000864,53.1598,301.5173,69.6870,325.0830,0,U,69822,999,239,-.62389E-2,-.1726188E-1,0
STARLINK-37628,2026-154E,2026-07-13T12:00:00.998784,15.90816575,.0000859,53.1599,301.5105,69.2684,328.7443,0,U,69823,999,239,-.62149E-2,-.1972418E-1,.10477E-2
