KUIPER-00616            
1 69775U 26151N   26194.42473345  .00015442  00000+0  41126-3 0  9995
2 69775  51.8764 188.8698 0002942 110.5944 249.5359 15.38368221  1744
KUIPER-00617            
1 69776U 26151P   26194.42824008  .00009139  00000+0  25274-3 0  9994
2 69776  51.8785 188.8916 0004027 127.8474 232.2878 15.37751148  1744
KUIPER-00619            
1 69777U 26151Q   26194.48781552  .00012825  00000+0  34186-3 0  9995
2 69777  51.8786 188.5383 0002050  55.3478 304.7703 15.38509808  1752
KUIPER-00621            
1 69778U 26151R   26194.48949248  .00010338  00000+0  27950-3 0  9992
2 69778  51.8779 188.5537 0002193  95.9796 264.1441 15.38304218  1753
KUIPER-00622            
1 69779U 26151S   26194.49898447  .00016926  00000+0  47022-3 0  9999
2 69779  51.8731 188.6183 0006164 134.5942 225.5548 15.36973153  1752
KUIPER-00623            
1 69780U 26151T   26194.49544567  .00010107  00000+0  28142-3 0  9999
2 69780  51.8767 188.5916 0005062 125.4370 234.7090 15.37408531  1754
KUIPER-00626            
1 69781U 26151U   26194.50666838  .00001664  00000+0  58422-4 0  9991
2 69781  51.8713 188.6659 0009926 157.4028 202.7397 15.35544368  1751
KUIPER-00627            
1 69782U 26151V   26194.50836274  .00002725  00000+0  88817-4 0  9995
2 69782  51.8688 188.6756 0011046 161.1018 199.0379 15.35460927  1754
KUIPER-00629            
1 69783U 26151W   26194.49943388  .00012012  00000+0  33722-3 0  9993
2 69783  51.8735 188.6185 0007344 138.3193 221.8354 15.36948752  1755
KUIPER-00631            
1 69784U 26151X   26194.50110551  .00010069  00000+0  28653-3 0  9991
2 69784  51.8710 188.6284 0007973 149.1429 211.0028 15.36717956  1758
KUIPER-00634            
1 69785U 26151Y   26194.42869586  .00007771  00000+0  21681-3 0  9992
2 69785  51.8762 188.8963 0003754 128.5208 231.6116 15.37708366  1742
KUIPER-00639            
1 69786U 26151Z   26194.43980887  .00019905  00000+0  56966-3 0  9998
2 69786  51.8680 188.9682 0009407 155.4891 204.6544 15.35902573  1748
KUIPER-00641            
1 69787U 26151AA  26194.44368616 -.00001730  00000+0 -38747-4 0  9997
2 69787  51.8671 188.9921 0010298 153.2259 206.9261 15.35115253  1741
KUIPER-00644            
1 69788U 26151AB  26194.50245081  .00012011  00000+0  34165-3 0  9996
2 69788  51.8737 188.6394 0007065 143.7441 216.4025 15.36538512  1754
KUIPER-00646            
1 69789U 26151AC  26194.43947477  .00027353  00000+0  77620-3 0  9995
2 69789  51.8702 188.9638 0010038 161.9649 198.1695 15.35967857  1742
KUIPER-00647            
1 69790U 26151AD  26194.44252269  .00014131  00000+0  41124-3 0  9996
2 69790  51.8652 188.9826 0010395 157.1351 203.0099 15.35638074  1740
KUIPER-00662            
1 69791U 26151AE  26194.50178308 -.00004252  00000+0 -10636-3 0  9994
2 69791  51.8722 188.6349 0008430 147.4488 212.7020 15.36578059  1755
LINK                    
1 69792U 26152A   26194.52951179  .00116127  00000+0  10182-2 0  9991
2 69792  20.5931 340.2181 0024318 332.1267  27.7877 15.66687668  1598
ISS OBJECT YJ           
1 69794U 98067YJ  26194.30943237  .00018569  00000+0  33285-3 0  9990
2 69794  51.6302 170.7525 0007798 305.0865  54.9392 15.49952170  1702
ISS OBJECT YK           
1 69795U 98067YK  26194.30646490  .00034662  00000+0  59999-3 0  9994
2 69795  51.6301 170.7325 0006808 314.2407  45.8022 15.50571455  1709
ISS OBJECT YL           
1 69796U 98067YL  26194.30714869  .00026449  00000+0  46324-3 0  9993
2 69796  51.6300 170.7373 0008858 306.5347  53.4825 15.50366695  1698
ISS OBJECT YM           
1 69797U 98067YM  26194.30694717  .00026962  00000+0  47128-3 0  9996
2 69797  51.6301 170.7356 0009609 297.6086  62.3927 15.50405773  1688
ISS OBJECT YN           
1 69798U 98067YN  26194.30739465  .00018443  00000+0  32725-3 0  9999
2 69798  51.6304 170.7381 0009232 308.5792  51.4370 15.50233716  1708
ISS OBJECT YP           
1 69799U 98067YP  26194.30686930  .00026134  00000+0  45707-3 0  9998
2 69799  51.6300 170.7353 0009774 297.7177  62.2820 15.50404929  1695
STARLINK-37520          
1 69819U 26154A   26194.50001156 -.01734578  00000+0 -63911-2 0  9999
2 69819  53.1600 301.5373 0000761  71.9057 313.2994 15.90344978  2390
STARLINK-37553          
1 69820U 26154B   26194.50001156 -.01724621  00000+0 -63147-2 0  9990
2 69820  53.1600 301.5302 0000793  68.5360 320.0034 15.90448238  2393
STARLINK-37561          
1 69821U 26154C   26194.50001156 -.01727376  00000+0 -62886-2 0  9990
2 69821  53.1600 301.5234 0000899  68.7170 323.1619 15.90562399  2394
STARLINK-37521          
1 69822U 26154D   26194.50001156 -.01726188  00000+0 -62389-2 0  9999
2 69822  53.1598 301.5173 0000864  69.6870 325.0830 15.90700348  2396
STARLINK-37628          
1 69823U 26154E   26194.50001156 -.01972418  10477-2 -62149-2 0  9995
2 69823  53.1599 301.5105 0000859  69.2684 328.7443 15.90816575  2396
